{
  "type": "FeatureCollection",
  "features": [
    {
      "type": "Feature",
      "properties": {
        "norad_id": 27954,
        "name": "GALAXY 13 (HORIZONS-1)",
        "group": "intelsat",
        "lat": 0.0077679163077922185,
        "lon": 85.74275300305729,
        "alt_km": 35794.185881295394,
        "timestamp": "2025-12-03T10:52:57.117487+00:00",
        "meta_object_name": "GALAXY 13 (HORIZONS-1)",
        "meta_object_id": "2003-044A",
        "meta_epoch": "2025-12-03T02:46:08.621184",
        "meta_mean_motion": 1.00272394,
        "meta_eccentricity": 0.0002072,
        "meta_inclination": 0.9107,
        "meta_ra_of_asc_node": 86.5888,
        "meta_arg_of_pericenter": 160.3308,
        "meta_mean_anomaly": 76.8191,
        "meta_ephemeris_type": 0,
        "meta_classification_type": "U",
        "meta_norad_cat_id": 27954,
        "meta_element_set_no": 999,
        "meta_rev_at_epoch": 4460,
        "meta_bstar": 0,
        "meta_mean_motion_dot": 1.52e-06,
        "meta_mean_motion_ddot": 0,
        "tle_line1": "1 27954U 03044A   25337.11537756  .00000152  00000+0  00000+0 0  9999",
        "tle_line2": "2 27954   0.9107  86.5888 0002072 160.3308  76.8191  1.00272394 44605"
      },
      "geometry": {
        "type": "Point",
        "coordinates": [
          85.74275300305729,
          0.0077679163077922185
        ]
      }
    },
    {
      "type": "Feature",
      "properties": {
        "norad_id": 28358,
        "name": "INTELSAT 10-02",
        "group": "intelsat",
        "lat": -0.01470372066952342,
        "lon": -125.24602008936067,
        "alt_km": 35782.79242685571,
        "timestamp": "2025-12-03T10:52:57.117499+00:00",
        "meta_object_name": "INTELSAT 10-02",
        "meta_object_id": "2004-022A",
        "meta_epoch": "2025-12-02T21:31:38.613216",
        "meta_mean_motion": 1.00271044,
        "meta_eccentricity": 0.0001134,
        "meta_inclination": 0.0398,
        "meta_ra_of_asc_node": 86.235,
        "meta_arg_of_pericenter": 192.2439,
        "meta_mean_anomaly": 115.4352,
        "meta_ephemeris_type": 0,
        "meta_classification_type": "U",
        "meta_norad_cat_id": 28358,
        "meta_element_set_no": 999,
        "meta_rev_at_epoch": 7858,
        "meta_bstar": 0,
        "meta_mean_motion_dot": 9e-08,
        "meta_mean_motion_ddot": 0,
        "tle_line1": "1 28358U 04022A   25336.89697469  .00000009  00000+0  00000+0 0  9998",
        "tle_line2": "2 28358   0.0398  86.2350 0001134 192.2439 115.4352  1.00271044 78589"
      },
      "geometry": {
        "type": "Point",
        "coordinates": [
          -125.24602008936067,
          -0.01470372066952342
        ]
      }
    },
    {
      "type": "Feature",
      "properties": {
        "norad_id": 28626,
        "name": "XM-3 (RHYTHM)",
        "group": "intelsat",
        "lat": -0.07900056132008092,
        "lon": 34.12729241184267,
        "alt_km": 36156.846357144685,
        "timestamp": "2025-12-03T10:52:57.117512+00:00",
        "meta_object_name": "XM-3 (RHYTHM)",
        "meta_object_id": "2005-008A",
        "meta_epoch": "2025-12-02T19:08:10.315104",
        "meta_mean_motion": 0.98955046,
        "meta_eccentricity": 8.64e-05,
        "meta_inclination": 0.1467,
        "meta_ra_of_asc_node": 80.743,
        "meta_arg_of_pericenter": 265.9206,
        "meta_mean_anomaly": 173.7506,
        "meta_ephemeris_type": 0,
        "meta_classification_type": "U",
        "meta_norad_cat_id": 28626,
        "meta_element_set_no": 999,
        "meta_rev_at_epoch": 4065,
        "meta_bstar": 0,
        "meta_mean_motion_dot": -2.32e-06,
        "meta_mean_motion_ddot": 0,
        "tle_line1": "1 28626U 05008A   25336.79734161 -.00000232  00000+0  00000+0 0  9990",
        "tle_line2": "2 28626   0.1467  80.7430 0000864 265.9206 173.7506  0.98955046 40654"
      },
      "geometry": {
        "type": "Point",
        "coordinates": [
          34.12729241184267,
          -0.07900056132008092
        ]
      }
    },
    {
      "type": "Feature",
      "properties": {
        "norad_id": 28659,
        "name": "DIRECTV 8",
        "group": "intelsat",
        "lat": 0.009567013079667189,
        "lon": 116.6952791828748,
        "alt_km": 35797.436491370936,
        "timestamp": "2025-12-03T10:52:57.117524+00:00",
        "meta_object_name": "DIRECTV 8",
        "meta_object_id": "2005-019A",
        "meta_epoch": "2025-12-03T04:16:38.815392",
        "meta_mean_motion": 1.00271343,
        "meta_eccentricity": 0.0003298,
        "meta_inclination": 0.0151,
        "meta_ra_of_asc_node": 306.8125,
        "meta_arg_of_pericenter": 313.5862,
        "meta_mean_anomaly": 116.9976,
        "meta_ephemeris_type": 0,
        "meta_classification_type": "U",
        "meta_norad_cat_id": 28659,
        "meta_element_set_no": 999,
        "meta_rev_at_epoch": 7510,
        "meta_bstar": 0,
        "meta_mean_motion_dot": 2e-07,
        "meta_mean_motion_ddot": 0,
        "tle_line1": "1 28659U 05019A   25337.17822703  .00000020  00000+0  00000+0 0  9995",
        "tle_line2": "2 28659   0.0151 306.8125 0003298 313.5862 116.9976  1.00271343 75107"
      },
      "geometry": {
        "type": "Point",
        "coordinates": [
          116.6952791828748,
          0.009567013079667189
        ]
      }
    },
    {
      "type": "Feature",
      "properties": {
        "norad_id": 28702,
        "name": "GALAXY 28 (G-28)",
        "group": "intelsat",
        "lat": 2.5441700088969563,
        "lon": 147.00314596846874,
        "alt_km": 35788.262181866834,
        "timestamp": "2025-12-03T10:52:57.117536+00:00",
        "meta_object_name": "GALAXY 28 (G-28)",
        "meta_object_id": "2005-022A",
        "meta_epoch": "2025-12-03T03:03:36.946080",
        "meta_mean_motion": 1.00272226,
        "meta_eccentricity": 0.0002659,
        "meta_inclination": 2.7941,
        "meta_ra_of_asc_node": 81.3919,
        "meta_arg_of_pericenter": 169.0679,
        "meta_mean_anomaly": 138.9637,
        "meta_ephemeris_type": 0,
        "meta_classification_type": "U",
        "meta_norad_cat_id": 28702,
        "meta_element_set_no": 999,
        "meta_rev_at_epoch": 5000,
        "meta_bstar": 0,
        "meta_mean_motion_dot": -1.69e-06,
        "meta_mean_motion_ddot": 0,
        "tle_line1": "1 28702U 05022A   25337.12751095 -.00000169  00000+0  00000+0 0  9993",
        "tle_line2": "2 28702   2.7941  81.3919 0002659 169.0679 138.9637  1.00272226 50009"
      },
      "geometry": {
        "type": "Point",
        "coordinates": [
          147.00314596846874,
          2.5441700088969563
        ]
      }
    },
    {
      "type": "Feature",
      "properties": {
        "norad_id": 29236,
        "name": "GALAXY 16 (G-16)",
        "group": "intelsat",
        "lat": -0.015189103750116492,
        "lon": 136.71507188772148,
        "alt_km": 35792.248742316275,
        "timestamp": "2025-12-03T10:52:57.117548+00:00",
        "meta_object_name": "GALAXY 16 (G-16)",
        "meta_object_id": "2006-023A",
        "meta_epoch": "2025-12-03T04:00:38.641824",
        "meta_mean_motion": 1.00270158,
        "meta_eccentricity": 0.0002901,
        "meta_inclination": 0.0255,
        "meta_ra_of_asc_node": 219.5715,
        "meta_arg_of_pericenter": 34.8297,
        "meta_mean_anomaly": 139.0115,
        "meta_ephemeris_type": 0,
        "meta_classification_type": "U",
        "meta_norad_cat_id": 29236,
        "meta_element_set_no": 999,
        "meta_rev_at_epoch": 7100,
        "meta_bstar": 0,
        "meta_mean_motion_dot": -1.08e-06,
        "meta_mean_motion_ddot": 0,
        "tle_line1": "1 29236U 06023A   25337.16711391 -.00000108  00000+0  00000+0 0  9990",
        "tle_line2": "2 29236   0.0255 219.5715 0002901  34.8297 139.0115  1.00270158 71003"
      },
      "geometry": {
        "type": "Point",
        "coordinates": [
          136.71507188772148,
          -0.015189103750116492
        ]
      }
    },
    {
      "type": "Feature",
      "properties": {
        "norad_id": 29494,
        "name": "DIRECTV 9S",
        "group": "intelsat",
        "lat": 1.4950002444762338,
        "lon": 134.5057923769201,
        "alt_km": 35792.278862107254,
        "timestamp": "2025-12-03T10:52:57.117560+00:00",
        "meta_object_name": "DIRECTV 9S",
        "meta_object_id": "2006-043A",
        "meta_epoch": "2025-12-03T04:00:38.641824",
        "meta_mean_motion": 1.00270605,
        "meta_eccentricity": 0.0003194,
        "meta_inclination": 1.9135,
        "meta_ra_of_asc_node": 83.3116,
        "meta_arg_of_pericenter": 167.8035,
        "meta_mean_anomaly": 140.1037,
        "meta_ephemeris_type": 0,
        "meta_classification_type": "U",
        "meta_norad_cat_id": 29494,
        "meta_element_set_no": 999,
        "meta_rev_at_epoch": 4941,
        "meta_bstar": 0,
        "meta_mean_motion_dot": -9.5e-07,
        "meta_mean_motion_ddot": 0,
        "tle_line1": "1 29494U 06043A   25337.16711391 -.00000095  00000+0  00000+0 0  9993",
        "tle_line2": "2 29494   1.9135  83.3116 0003194 167.8035 140.1037  1.00270605 49413"
      },
      "geometry": {
        "type": "Point",
        "coordinates": [
          134.5057923769201,
          1.4950002444762338
        ]
      }
    }
  ]
}